start=new Date('2022-06-18T00:00:00.000Z').valueOf();
sats=[{"OBJECT_ID":"2021-115M","CENTER_NAME":"EARTH","SEMIMAJOR_AXIS":"6917.864","REF_FRAME":"TEME","REV_AT_EPOCH":"2966","MEAN_ANOMALY":"315.4225","PERIAPSIS":"537.641","MEAN_MOTION":"15.08845514","MEAN_MOTION_DOT":"-0.00001103","DECAY_DATE":null,"EPHEMERIS_TYPE":"0","TLE_LINE2":"2 49735  53.2161 156.6401 0003017  44.7010 315.4225 15.08845514 29664","PERIOD":"95.437","ECCENTRICITY":"0.00030170","ARG_OF_PERICENTER":"44.7010","TIME_SYSTEM":"UTC","RA_OF_ASC_NODE":"156.6401","COUNTRY_CODE":"US","EPOCH":"2022-06-15T23:04:21.387360","ELEMENT_SET_NO":"999","LAUNCH_DATE":"2021-12-02","FILE":"3497002","INCLINATION":"53.2161","RCS_SIZE":"LARGE","BSTAR":"-0.00005113900000","TLE_LINE1":"1 49735U 21115M   22166.96135865 -.00001103  00000-0 -51139-4 0  9998","NORAD_CAT_ID":"49735","MEAN_ELEMENT_THEORY":"SGP4","MEAN_MOTION_DDOT":"0.0000000000000","CLASSIFICATION_TYPE":"U","OBJECT_TYPE":"PAYLOAD","OBJECT_NAME":"STARLINK-3113","APOAPSIS":"541.816","SITE":"AFETR","GP_ID":"206290881"},{"MEAN_ELEMENT_THEORY":"SGP4","MEAN_MOTION_DDOT":"0.0000000000000","OBJECT_TYPE":"PAYLOAD","CLASSIFICATION_TYPE":"U","OBJECT_NAME":"STARLINK-3148","APOAPSIS":"542.183","SITE":"AFETR","GP_ID":"206239882","RCS_SIZE":"LARGE","BSTAR":"0.00005029200000","TLE_LINE1":"1 49736U 21115N   22166.65316807  .00000512  00000-0  50292-4 0  9992","NORAD_CAT_ID":"49736","TLE_LINE2":"2 49736  53.2182 148.0282 0003552  46.8278 313.3011 15.08846275 29769","ARG_OF_PERICENTER":"46.8278","PERIOD":"95.437","ECCENTRICITY":"0.00035520","TIME_SYSTEM":"UTC","RA_OF_ASC_NODE":"148.0282","EPOCH":"2022-06-15T15:40:33.721248","COUNTRY_CODE":"US","ELEMENT_SET_NO":"999","LAUNCH_DATE":"2021-12-02","FILE":"3496999","INCLINATION":"53.2182","OBJECT_ID":"2021-115N","CENTER_NAME":"EARTH","SEMIMAJOR_AXIS":"6917.861","REF_FRAME":"TEME","REV_AT_EPOCH":"2976","MEAN_ANOMALY":"313.3011","PERIAPSIS":"537.269","MEAN_MOTION_DOT":"0.00000512","MEAN_MOTION":"15.08846275","EPHEMERIS_TYPE":"0","DECAY_DATE":null},{"PERIAPSIS":"537.697","MEAN_MOTION":"15.08831671","MEAN_MOTION_DOT":"-0.00000491","DECAY_DATE":null,"EPHEMERIS_TYPE":"0","REV_AT_EPOCH":"2981","MEAN_ANOMALY":"312.9067","REF_FRAME":"TEME","SEMIMAJOR_AXIS":"6917.906","CENTER_NAME":"EARTH","OBJECT_ID":"2021-115P","FILE":"3497002","INCLINATION":"53.2175","LAUNCH_DATE":"2021-12-02","COUNTRY_CODE":"US","EPOCH":"2022-06-15T23:32:11.296320","ELEMENT_SET_NO":"999","RA_OF_ASC_NODE":"146.5643","TLE_LINE2":"2 49737  53.2175 146.5643 0002998  47.2177 312.9067 15.08831671 29818","ECCENTRICITY":"0.00029980","PERIOD":"95.438","ARG_OF_PERICENTER":"47.2177","TIME_SYSTEM":"UTC","TLE_LINE1":"1 49737U 21115P   22166.98068630 -.00000491  00000-0 -12704-4 0  9991","NORAD_CAT_ID":"49737","BSTAR":"-0.00001270400000","RCS_SIZE":"LARGE","SITE":"AFETR","GP_ID":"206289385","APOAPSIS":"541.845","OBJECT_NAME":"STARLINK-3225","OBJECT_TYPE":"PAYLOAD","CLASSIFICATION_TYPE":"U","MEAN_ELEMENT_THEORY":"SGP4","MEAN_MOTION_DDOT":"0.0000000000000"},{"TLE_LINE1":"1 49738U 21115Q   22166.65684758 -.00000151  00000-0  86613-5 0  9994","NORAD_CAT_ID":"49738","RCS_SIZE":"LARGE","BSTAR":"0.00000866130000","CLASSIFICATION_TYPE":"U","OBJECT_TYPE":"PAYLOAD","MEAN_ELEMENT_THEORY":"SGP4","MEAN_MOTION_DDOT":"0.0000000000000","APOAPSIS":"542.095","SITE":"AFETR","GP_ID":"206238880","OBJECT_NAME":"STARLINK-3143","OBJECT_ID":"2021-115Q","CENTER_NAME":"EARTH","MEAN_ANOMALY":"314.5482","REV_AT_EPOCH":"2976","MEAN_MOTION_DOT":"-0.00000151","PERIAPSIS":"537.404","MEAN_MOTION":"15.08838681","EPHEMERIS_TYPE":"0","DECAY_DATE":null,"SEMIMAJOR_AXIS":"6917.884","REF_FRAME":"TEME","RA_OF_ASC_NODE":"148.0246","COUNTRY_CODE":"US","EPOCH":"2022-06-15T15:45:51.630912","ELEMENT_SET_NO":"999","TLE_LINE2":"2 49738  53.2187 148.0246 0003390  45.5787 314.5482 15.08838681 29764","PERIOD":"95.438","ECCENTRICITY":"0.00033900","ARG_OF_PERICENTER":"45.5787","TIME_SYSTEM":"UTC","LAUNCH_DATE":"2021-12-02","FILE":"3496999","INCLINATION":"53.2187"},{"ECCENTRICITY":"0.00031780","TLE_LINE2":"2 49739  53.2154 157.7965 0003178  43.3497 316.7744 15.08840421 29627","PERIOD":"95.438","ARG_OF_PERICENTER":"43.3497","TIME_SYSTEM":"UTC","EPOCH":"2022-06-15T16:53:25.192320","COUNTRY_CODE":"US","ELEMENT_SET_NO":"999","RA_OF_ASC_NODE":"157.7965","FILE":"3496999","INCLINATION":"53.2154","LAUNCH_DATE":"2021-12-02","CENTER_NAME":"EARTH","OBJECT_ID":"2021-115R","REF_FRAME":"TEME","SEMIMAJOR_AXIS":"6917.879","PERIAPSIS":"537.546","MEAN_MOTION":"15.08840421","MEAN_MOTION_DOT":"0.00002329","EPHEMERIS_TYPE":"0","DECAY_DATE":null,"REV_AT_EPOCH":"2962","MEAN_ANOMALY":"316.7744","MEAN_ELEMENT_THEORY":"SGP4","MEAN_MOTION_DDOT":"0.0000000000000","OBJECT_TYPE":"PAYLOAD","CLASSIFICATION_TYPE":"U","OBJECT_NAME":"STARLINK-3155","SITE":"AFETR","GP_ID":"206239132","APOAPSIS":"541.943","BSTAR":"0.00016443000000","RCS_SIZE":"LARGE","TLE_LINE1":"1 49739U 21115R   22166.70376380  .00002329  00000-0  16443-3 0  9990","NORAD_CAT_ID":"49739"},{"OBJECT_TYPE":"PAYLOAD","CLASSIFICATION_TYPE":"U","MEAN_MOTION_DDOT":"0.0000000000000","MEAN_ELEMENT_THEORY":"SGP4","GP_ID":"206239383","SITE":"AFETR","APOAPSIS":"542.065","OBJECT_NAME":"STARLINK-3226","NORAD_CAT_ID":"49740","TLE_LINE1":"1 49740U 21115S   22166.66787795  .00000149  00000-0  27475-4 0  9999","BSTAR":"0.00002747500000","RCS_SIZE":"LARGE","ELEMENT_SET_NO":"999","EPOCH":"2022-06-15T16:01:44.654880","COUNTRY_CODE":"US","RA_OF_ASC_NODE":"147.9708","TIME_SYSTEM":"UTC","TLE_LINE2":"2 49740  53.2153 147.9708 0003361  44.8042 315.3221 15.08841920 29765","PERIOD":"95.437","ARG_OF_PERICENTER":"44.8042","ECCENTRICITY":"0.00033610","INCLINATION":"53.2153","FILE":"3496999","LAUNCH_DATE":"2021-12-02","CENTER_NAME":"EARTH","OBJECT_ID":"2021-115S","EPHEMERIS_TYPE":"0","DECAY_DATE":null,"MEAN_MOTION_DOT":"0.00000149","PERIAPSIS":"537.414","MEAN_MOTION":"15.08841920","MEAN_ANOMALY":"315.3221","REV_AT_EPOCH":"2976","REF_FRAME":"TEME","SEMIMAJOR_AXIS":"6917.875"},{"LAUNCH_DATE":"2021-12-02","FILE":"3496999","INCLINATION":"53.2152","TLE_LINE2":"2 49741  53.2152 148.0023 0002968  45.6464 314.4771 15.08832209 29766","PERIOD":"95.438","ECCENTRICITY":"0.00029680","ARG_OF_PERICENTER":"45.6464","TIME_SYSTEM":"UTC","RA_OF_ASC_NODE":"148.0023","COUNTRY_CODE":"US","EPOCH":"2022-06-15T15:51:09.582048","ELEMENT_SET_NO":"999","SEMIMAJOR_AXIS":"6917.904","REF_FRAME":"TEME","MEAN_ANOMALY":"314.4771","REV_AT_EPOCH":"2976","PERIAPSIS":"537.716","MEAN_MOTION_DOT":"-0.00000346","MEAN_MOTION":"15.08832209","EPHEMERIS_TYPE":"0","DECAY_DATE":null,"OBJECT_ID":"2021-115T","CENTER_NAME":"EARTH","OBJECT_NAME":"STARLINK-3244","APOAPSIS":"541.822","SITE":"AFETR","GP_ID":"206238131","MEAN_ELEMENT_THEORY":"SGP4","MEAN_MOTION_DDOT":"0.0000000000000","CLASSIFICATION_TYPE":"U","OBJECT_TYPE":"PAYLOAD","RCS_SIZE":"LARGE","BSTAR":"-0.00000358260000","TLE_LINE1":"1 49741U 21115T   22166.66052757 -.00000346  00000-0 -35826-5 0  9994","NORAD_CAT_ID":"49741"},{"LAUNCH_DATE":"2021-12-02","INCLINATION":"53.2152","FILE":"3496999","RA_OF_ASC_NODE":"147.6430","ELEMENT_SET_NO":"999","COUNTRY_CODE":"US","EPOCH":"2022-06-15T17:47:43.567872","TIME_SYSTEM":"UTC","TLE_LINE2":"2 49742  53.2152 147.6430 0002811  49.5129 310.6108 15.08846244 29779","PERIOD":"95.437","ARG_OF_PERICENTER":"49.5129","ECCENTRICITY":"0.00028110","REV_AT_EPOCH":"2977","MEAN_ANOMALY":"310.6108","DECAY_DATE":null,"EPHEMERIS_TYPE":"0","MEAN_MOTION":"15.08846244","PERIAPSIS":"537.782","MEAN_MOTION_DOT":"0.00002194","SEMIMAJOR_AXIS":"6917.861","REF_FRAME":"TEME","OBJECT_ID":"2021-115U","CENTER_NAME":"EARTH","APOAPSIS":"541.671","GP_ID":"206238381","SITE":"AFETR","OBJECT_NAME":"STARLINK-3202","OBJECT_TYPE":"PAYLOAD","CLASSIFICATION_TYPE":"U","MEAN_MOTION_DDOT":"0.0000000000000","MEAN_ELEMENT_THEORY":"SGP4","NORAD_CAT_ID":"49742","TLE_LINE1":"1 49742U 21115U   22166.74147648  .00002194  00000-0  15592-3 0  9995","RCS_SIZE":"LARGE","BSTAR":"0.00015592000000"},{"BSTAR":"-0.00030587000000","RCS_SIZE":"LARGE","TLE_LINE1":"1 49743U 21115V   22166.92919107 -.00005150  00000-0 -30587-3 0  9991","NORAD_CAT_ID":"49743","OBJECT_NAME":"STARLINK-3239","SITE":"AFETR","GP_ID":"206290882","APOAPSIS":"541.809","MEAN_ELEMENT_THEORY":"SGP4","MEAN_MOTION_DDOT":"0.0000000000000","CLASSIFICATION_TYPE":"U","OBJECT_TYPE":"PAYLOAD","REF_FRAME":"TEME","SEMIMAJOR_AXIS":"6917.969","PERIAPSIS":"537.859","MEAN_MOTION_DOT":"-0.00005150","MEAN_MOTION":"15.08810904","DECAY_DATE":null,"EPHEMERIS_TYPE":"0","REV_AT_EPOCH":"2980","MEAN_ANOMALY":"312.6376","CENTER_NAME":"EARTH","OBJECT_ID":"2021-115V","FILE":"3497002","INCLINATION":"53.2159","LAUNCH_DATE":"2021-12-02","TLE_LINE2":"2 49743  53.2159 146.7976 0002855  47.4857 312.6376 15.08810904 29802","ECCENTRICITY":"0.00028550","PERIOD":"95.439","ARG_OF_PERICENTER":"47.4857","TIME_SYSTEM":"UTC","COUNTRY_CODE":"US","EPOCH":"2022-06-15T22:18:02.108448","ELEMENT_SET_NO":"999","RA_OF_ASC_NODE":"146.7976"},{"CLASSIFICATION_TYPE":"U","OBJECT_TYPE":"PAYLOAD","MEAN_ELEMENT_THEORY":"SGP4","MEAN_MOTION_DDOT":"0.0000000000000","APOAPSIS":"541.879","SITE":"AFETR","GP_ID":"206289637","OBJECT_NAME":"STARLINK-3231","TLE_LINE1":"1 49744U 21115W   22166.88132767  .00000590  00000-0  55153-4 0  9994","NORAD_CAT_ID":"49744","RCS_SIZE":"LARGE","BSTAR":"0.00005515300000","RA_OF_ASC_NODE":"147.0061","EPOCH":"2022-06-15T21:09:06.710688","COUNTRY_CODE":"US","ELEMENT_SET_NO":"999","ARG_OF_PERICENTER":"46.3832","TLE_LINE2":"2 49744  53.2159 147.0061 0003157  46.3832 313.7422 15.08856364 29791","PERIOD":"95.437","ECCENTRICITY":"0.00031570","TIME_SYSTEM":"UTC","LAUNCH_DATE":"2021-12-02","FILE":"3497002","INCLINATION":"53.2159","OBJECT_ID":"2021-115W","CENTER_NAME":"EARTH","MEAN_ANOMALY":"313.7422","REV_AT_EPOCH":"2979","PERIAPSIS":"537.511","MEAN_MOTION_DOT":"0.00000590","MEAN_MOTION":"15.08856364","DECAY_DATE":null,"EPHEMERIS_TYPE":"0","SEMIMAJOR_AXIS":"6917.830","REF_FRAME":"TEME"}];
